{
  "type": "FeatureCollection",
  "features": [
    {
      "type": "Feature",
      "properties": {
        "norad_id": 40894,
        "name": "GAOFEN-9 01",
        "group": "resource",
        "lat": -4.5286856997443925,
        "lon": -151.01525563052905,
        "alt_km": 644.1210414985899,
        "timestamp": "2025-12-16T19:34:23.922280+00:00",
        "meta_object_name": "GAOFEN-9 01",
        "meta_object_id": "2015-047A",
        "meta_epoch": "2025-12-15T23:18:19.388736",
        "meta_mean_motion": 14.82430207,
        "meta_eccentricity": 0.00281395,
        "meta_inclination": 97.654,
        "meta_ra_of_asc_node": 28.787,
        "meta_arg_of_pericenter": 23.9619,
        "meta_mean_anomaly": 336.2898,
        "meta_ephemeris_type": 0,
        "meta_classification_type": "U",
        "meta_norad_cat_id": 40894,
        "meta_element_set_no": 999,
        "meta_rev_at_epoch": 55304,
        "meta_bstar": 0.00014776635,
        "meta_mean_motion_dot": 1.141e-05,
        "meta_mean_motion_ddot": 0,
        "tle_line1": "1 40894U 15047A   25349.97105774  .00001141  00000+0  14777-3 0  9990",
        "tle_line2": "2 40894  97.6540  28.7870 0028139  23.9619 336.2898 14.82430207553040"
      },
      "geometry": {
        "type": "Point",
        "coordinates": [
          -151.01525563052905,
          -4.5286856997443925
        ]
      }
    },
    {
      "type": "Feature",
      "properties": {
        "norad_id": 41026,
        "name": "YAOGAN-28",
        "group": "resource",
        "lat": -50.09326858982902,
        "lon": -60.30031241278661,
        "alt_km": 503.4993597402199,
        "timestamp": "2025-12-16T19:34:23.922291+00:00",
        "meta_object_name": "YAOGAN-28",
        "meta_object_id": "2015-064A",
        "meta_epoch": "2025-12-15T23:39:40.841568",
        "meta_mean_motion": 15.24410808,
        "meta_eccentricity": 0.00125036,
        "meta_inclination": 97.2802,
        "meta_ra_of_asc_node": 127.6863,
        "meta_arg_of_pericenter": 115.5507,
        "meta_mean_anomaly": 244.7025,
        "meta_ephemeris_type": 0,
        "meta_classification_type": "U",
        "meta_norad_cat_id": 41026,
        "meta_element_set_no": 999,
        "meta_rev_at_epoch": 56274,
        "meta_bstar": 0.00025999288,
        "meta_mean_motion_dot": 6.319e-05,
        "meta_mean_motion_ddot": 0,
        "tle_line1": "1 41026U 15064A   25349.98588937  .00006319  00000+0  25999-3 0  9994",
        "tle_line2": "2 41026  97.2802 127.6863 0012503 115.5507 244.7025 15.24410808562742"
      },
      "geometry": {
        "type": "Point",
        "coordinates": [
          -60.30031241278661,
          -50.09326858982902
        ]
      }
    },
    {
      "type": "Feature",
      "properties": {
        "norad_id": 41038,
        "name": "YAOGAN-29",
        "group": "resource",
        "lat": 76.40681902083499,
        "lon": -21.68062468695067,
        "alt_km": 613.061248680674,
        "timestamp": "2025-12-16T19:34:23.922302+00:00",
        "meta_object_name": "YAOGAN-29",
        "meta_object_id": "2015-069A",
        "meta_epoch": "2025-12-15T23:47:06.020160",
        "meta_mean_motion": 14.82887133,
        "meta_eccentricity": 1.495e-05,
        "meta_inclination": 98.0225,
        "meta_ra_of_asc_node": 13.1736,
        "meta_arg_of_pericenter": 204.2946,
        "meta_mean_anomaly": 155.826,
        "meta_ephemeris_type": 0,
        "meta_classification_type": "U",
        "meta_norad_cat_id": 41038,
        "meta_element_set_no": 999,
        "meta_rev_at_epoch": 54347,
        "meta_bstar": 5.0680641e-05,
        "meta_mean_motion_dot": 3.57e-06,
        "meta_mean_motion_ddot": 0,
        "tle_line1": "1 41038U 15069A   25349.99104190  .00000357  00000+0  50681-4 0  9991",
        "tle_line2": "2 41038  98.0225  13.1736 0000149 204.2946 155.8260 14.82887133543471"
      },
      "geometry": {
        "type": "Point",
        "coordinates": [
          -21.68062468695067,
          76.40681902083499
        ]
      }
    },
    {
      "type": "Feature",
      "properties": {
        "norad_id": 41167,
        "name": "KENT RIDGE 1",
        "group": "resource",
        "lat": -13.082544261529138,
        "lon": 61.271745177264755,
        "alt_km": 496.036862168934,
        "timestamp": "2025-12-16T19:34:23.922312+00:00",
        "meta_object_name": "KENT RIDGE 1",
        "meta_object_id": "2015-077B",
        "meta_epoch": "2025-12-15T22:04:06.566016",
        "meta_mean_motion": 15.21663173,
        "meta_eccentricity": 0.00084772,
        "meta_inclination": 14.9783,
        "meta_ra_of_asc_node": 187.5467,
        "meta_arg_of_pericenter": 175.9141,
        "meta_mean_anomaly": 184.1251,
        "meta_ephemeris_type": 0,
        "meta_classification_type": "U",
        "meta_norad_cat_id": 41167,
        "meta_element_set_no": 999,
        "meta_rev_at_epoch": 55312,
        "meta_bstar": 0.00013227014,
        "meta_mean_motion_dot": 3.834e-05,
        "meta_mean_motion_ddot": 0,
        "tle_line1": "1 41167U 15077B   25349.91952044  .00003834  00000+0  13227-3 0  9991",
        "tle_line2": "2 41167  14.9783 187.5467 0008477 175.9141 184.1251 15.21663173553128"
      },
      "geometry": {
        "type": "Point",
        "coordinates": [
          61.271745177264755,
          -13.082544261529138
        ]
      }
    },
    {
      "type": "Feature",
      "properties": {
        "norad_id": 41194,
        "name": "GAOFEN-4",
        "group": "resource",
        "lat": 0.13713810910888172,
        "lon": 124.96976222548557,
        "alt_km": 35776.45944120196,
        "timestamp": "2025-12-16T19:34:23.922325+00:00",
        "meta_object_name": "GAOFEN-4",
        "meta_object_id": "2015-083A",
        "meta_epoch": "2025-12-16T01:52:31.968192",
        "meta_mean_motion": 1.00279401,
        "meta_eccentricity": 0.0002739,
        "meta_inclination": 0.1787,
        "meta_ra_of_asc_node": 81.6902,
        "meta_arg_of_pericenter": 91.9856,
        "meta_mean_anomaly": 45.1161,
        "meta_ephemeris_type": 0,
        "meta_classification_type": "U",
        "meta_norad_cat_id": 41194,
        "meta_element_set_no": 999,
        "meta_rev_at_epoch": 3669,
        "meta_bstar": 0,
        "meta_mean_motion_dot": -3.13e-06,
        "meta_mean_motion_ddot": 0,
        "tle_line1": "1 41194U 15083A   25350.07814778 -.00000313  00000+0  00000+0 0  9999",
        "tle_line2": "2 41194   0.1787  81.6902 0002739  91.9856  45.1161  1.00279401 36695"
      },
      "geometry": {
        "type": "Point",
        "coordinates": [
          124.96976222548557,
          0.13713810910888172
        ]
      }
    },
    {
      "type": "Feature",
      "properties": {
        "norad_id": 41240,
        "name": "JASON-3",
        "group": "resource",
        "lat": 50.12039389729928,
        "lon": -62.89789813442696,
        "alt_km": 1310.1109833898427,
        "timestamp": "2025-12-16T19:34:23.922336+00:00",
        "meta_object_name": "JASON-3",
        "meta_object_id": "2016-002A",
        "meta_epoch": "2025-12-15T22:25:56.408160",
        "meta_mean_motion": 12.87626716,
        "meta_eccentricity": 0.00071685,
        "meta_inclination": 66.0393,
        "meta_ra_of_asc_node": 151.107,
        "meta_arg_of_pericenter": 270.9908,
        "meta_mean_anomaly": 89.029,
        "meta_ephemeris_type": 0,
        "meta_classification_type": "U",
        "meta_norad_cat_id": 41240,
        "meta_element_set_no": 999,
        "meta_rev_at_epoch": 46365,
        "meta_bstar": 0.00012911346,
        "meta_mean_motion_dot": -3e-07,
        "meta_mean_motion_ddot": 0,
        "tle_line1": "1 41240U 16002A   25349.93468065 -.00000030  00000+0  12911-3 0  9994",
        "tle_line2": "2 41240  66.0393 151.1070 0007168 270.9908  89.0290 12.87626716463650"
      },
      "geometry": {
        "type": "Point",
        "coordinates": [
          -62.89789813442696,
          50.12039389729928
        ]
      }
    },
    {
      "type": "Feature",
      "properties": {
        "norad_id": 41335,
        "name": "SENTINEL-3A",
        "group": "resource",
        "lat": 35.062830313166764,
        "lon": 49.651253069969755,
        "alt_km": 799.8943322085361,
        "timestamp": "2025-12-16T19:34:23.922347+00:00",
        "meta_object_name": "SENTINEL-3A",
        "meta_object_id": "2016-011A",
        "meta_epoch": "2025-12-15T21:31:36.356448",
        "meta_mean_motion": 14.26731908,
        "meta_eccentricity": 9.334e-05,
        "meta_inclination": 98.6312,
        "meta_ra_of_asc_node": 54.865,
        "meta_arg_of_pericenter": 91.8173,
        "meta_mean_anomaly": 268.3114,
        "meta_ephemeris_type": 0,
        "meta_classification_type": "U",
        "meta_norad_cat_id": 41335,
        "meta_element_set_no": 999,
        "meta_rev_at_epoch": 51192,
        "meta_bstar": 7.1563842e-05,
        "meta_mean_motion_dot": 1.29e-06,
        "meta_mean_motion_ddot": 0,
        "tle_line1": "1 41335U 16011A   25349.89694857  .00000129  00000+0  71564-4 0  9992",
        "tle_line2": "2 41335  98.6312  54.8650 0000933  91.8173 268.3114 14.26731908511923"
      },
      "geometry": {
        "type": "Point",
        "coordinates": [
          49.651253069969755,
          35.062830313166764
        ]
      }
    }
  ]
}